IRIDIUM 166             
1 43570U 18061B   25045.12470582  .00000457  00000+0  15610-3 0  9991
2 43570  86.3917 260.6632 0002445  81.7834 278.3639 14.34220026343446
IRIDIUM 158             
1 43571U 18061C   25044.95345248  .00000297  00000+0  99058-4 0  9993
2 43571  86.3923 260.7447 0002169  92.7251 267.4193 14.34218784343382
IRIDIUM 165             
1 43572U 18061D   25045.11836125  .00000036  00000+0  57909-5 0  9993
2 43572  86.3924 260.7127 0002005  82.1117 278.0306 14.34217908343439
IRIDIUM 155             
1 43573U 18061E   25045.15007474  .00000002  00000+0 -65165-5 0  9992
2 43573  86.3919 260.5927 0002394  89.4038 270.7432 14.34217344343414
IRIDIUM 154             
1 43574U 18061F   25045.34035178  .00000009  00000+0 -37630-5 0  9999
2 43574  86.3925 260.6223 0001915  85.9612 274.1803 14.34217707343489
IRIDIUM 163             
1 43575U 18061G   25045.53062834  .00000065  00000+0  16182-4 0  9999
2 43575  86.3919 260.4735 0002057  91.7924 268.3508 14.34217283343484
IRIDIUM 156             
1 43576U 18061H   25045.08664940  .00000388  00000+0  13160-3 0  9996
2 43576  86.3921 260.6662 0002477  86.3786 273.7693 14.34217556343401
IRIDIUM 164             
1 43577U 18061J   25045.34669505  .00000382  00000+0  12947-3 0  9994
2 43577  86.3921 260.5896 0002159  82.9376 277.2065 14.34216562343491
