<?xml version="1.0" encoding="UTF-8"?>
<ndm xmlns:xsi="http://www.w3.org/2001/XMLSchema-instance" xsi:noNamespaceSchemaLocation="https://sanaregistry.org/r/ndmxml_unqualified/ndmxml-2.0.0-master-2.0.xsd">
<omm id="CCSDS_OMM_VERS" version="2.0">
<header><CREATION_DATE/><ORIGINATOR/></header><body><segment><metadata><OBJECT_NAME>IRIDIUM 166</OBJECT_NAME><OBJECT_ID>2018-061B</OBJECT_ID><CENTER_NAME>EARTH</CENTER_NAME><REF_FRAME>TEME</REF_FRAME><TIME_SYSTEM>UTC</TIME_SYSTEM><MEAN_ELEMENT_THEORY>SGP4</MEAN_ELEMENT_THEORY></metadata><data><meanElements><EPOCH>2025-02-14T02:59:34.582848</EPOCH><MEAN_MOTION>14.34220026</MEAN_MOTION><ECCENTRICITY>.0002445</ECCENTRICITY><INCLINATION>86.3917</INCLINATION><RA_OF_ASC_NODE>260.6632</RA_OF_ASC_NODE><ARG_OF_PERICENTER>81.7834</ARG_OF_PERICENTER><MEAN_ANOMALY>278.3639</MEAN_ANOMALY></meanElements><tleParameters><EPHEMERIS_TYPE>0</EPHEMERIS_TYPE><CLASSIFICATION_TYPE>U</CLASSIFICATION_TYPE><NORAD_CAT_ID>43570</NORAD_CAT_ID><ELEMENT_SET_NO>999</ELEMENT_SET_NO><REV_AT_EPOCH>34344</REV_AT_EPOCH><BSTAR>.1561E-3</BSTAR><MEAN_MOTION_DOT>.457E-5</MEAN_MOTION_DOT><MEAN_MOTION_DDOT>0</MEAN_MOTION_DDOT></tleParameters></data></segment></body></omm>
<omm id="CCSDS_OMM_VERS" version="2.0">
<header><CREATION_DATE/><ORIGINATOR/></header><body><segment><metadata><OBJECT_NAME>IRIDIUM 158</OBJECT_NAME><OBJECT_ID>2018-061C</OBJECT_ID><CENTER_NAME>EARTH</CENTER_NAME><REF_FRAME>TEME</REF_FRAME><TIME_SYSTEM>UTC</TIME_SYSTEM><MEAN_ELEMENT_THEORY>SGP4</MEAN_ELEMENT_THEORY></metadata><data><meanElements><EPOCH>2025-02-13T22:52:58.294272</EPOCH><MEAN_MOTION>14.34218784</MEAN_MOTION><ECCENTRICITY>.0002169</ECCENTRICITY><INCLINATION>86.3923</INCLINATION><RA_OF_ASC_NODE>260.7447</RA_OF_ASC_NODE><ARG_OF_PERICENTER>92.7251</ARG_OF_PERICENTER><MEAN_ANOMALY>267.4193</MEAN_ANOMALY></meanElements><tleParameters><EPHEMERIS_TYPE>0</EPHEMERIS_TYPE><CLASSIFICATION_TYPE>U</CLASSIFICATION_TYPE><NORAD_CAT_ID>43571</NORAD_CAT_ID><ELEMENT_SET_NO>999</ELEMENT_SET_NO><REV_AT_EPOCH>34338</REV_AT_EPOCH><BSTAR>.99058E-4</BSTAR><MEAN_MOTION_DOT>.297E-5</MEAN_MOTION_DOT><MEAN_MOTION_DDOT>0</MEAN_MOTION_DDOT></tleParameters></data></segment></body></omm>
<omm id="CCSDS_OMM_VERS" version="2.0">
<header><CREATION_DATE/><ORIGINATOR/></header><body><segment><metadata><OBJECT_NAME>IRIDIUM 165</OBJECT_NAME><OBJECT_ID>2018-061D</OBJECT_ID><CENTER_NAME>EARTH</CENTER_NAME><REF_FRAME>TEME</REF_FRAME><TIME_SYSTEM>UTC</TIME_SYSTEM><MEAN_ELEMENT_THEORY>SGP4</MEAN_ELEMENT_THEORY></metadata><data><meanElements><EPOCH>2025-02-14T02:50:26.412000</EPOCH><MEAN_MOTION>14.34217908</MEAN_MOTION><ECCENTRICITY>.0002005</ECCENTRICITY><INCLINATION>86.3924</INCLINATION><RA_OF_ASC_NODE>260.7127</RA_OF_ASC_NODE><ARG_OF_PERICENTER>82.1117</ARG_OF_PERICENTER><MEAN_ANOMALY>278.0306</MEAN_ANOMALY></meanElements><tleParameters><EPHEMERIS_TYPE>0</EPHEMERIS_TYPE><CLASSIFICATION_TYPE>U</CLASSIFICATION_TYPE><NORAD_CAT_ID>43572</NORAD_CAT_ID><ELEMENT_SET_NO>999</ELEMENT_SET_NO><REV_AT_EPOCH>34343</REV_AT_EPOCH><BSTAR>.57909E-5</BSTAR><MEAN_MOTION_DOT>.36E-6</MEAN_MOTION_DOT><MEAN_MOTION_DDOT>0</MEAN_MOTION_DDOT></tleParameters></data></segment></body></omm>
<omm id="CCSDS_OMM_VERS" version="2.0">
<header><CREATION_DATE/><ORIGINATOR/></header><body><segment><metadata><OBJECT_NAME>IRIDIUM 155</OBJECT_NAME><OBJECT_ID>2018-061E</OBJECT_ID><CENTER_NAME>EARTH</CENTER_NAME><REF_FRAME>TEME</REF_FRAME><TIME_SYSTEM>UTC</TIME_SYSTEM><MEAN_ELEMENT_THEORY>SGP4</MEAN_ELEMENT_THEORY></metadata><data><meanElements><EPOCH>2025-02-14T03:36:06.457536</EPOCH><MEAN_MOTION>14.34217344</MEAN_MOTION><ECCENTRICITY>.0002394</ECCENTRICITY><INCLINATION>86.3919</INCLINATION><RA_OF_ASC_NODE>260.5927</RA_OF_ASC_NODE><ARG_OF_PERICENTER>89.4038</ARG_OF_PERICENTER><MEAN_ANOMALY>270.7432</MEAN_ANOMALY></meanElements><tleParameters><EPHEMERIS_TYPE>0</EPHEMERIS_TYPE><CLASSIFICATION_TYPE>U</CLASSIFICATION_TYPE><NORAD_CAT_ID>43573</NORAD_CAT_ID><ELEMENT_SET_NO>999</ELEMENT_SET_NO><REV_AT_EPOCH>34341</REV_AT_EPOCH><BSTAR>-.65165E-5</BSTAR><MEAN_MOTION_DOT>.2E-7</MEAN_MOTION_DOT><MEAN_MOTION_DDOT>0</MEAN_MOTION_DDOT></tleParameters></data></segment></body></omm>
<omm id="CCSDS_OMM_VERS" version="2.0">
<header><CREATION_DATE/><ORIGINATOR/></header><body><segment><metadata><OBJECT_NAME>IRIDIUM 154</OBJECT_NAME><OBJECT_ID>2018-061F</OBJECT_ID><CENTER_NAME>EARTH</CENTER_NAME><REF_FRAME>TEME</REF_FRAME><TIME_SYSTEM>UTC</TIME_SYSTEM><MEAN_ELEMENT_THEORY>SGP4</MEAN_ELEMENT_THEORY></metadata><data><meanElements><EPOCH>2025-02-14T08:10:06.393792</EPOCH><MEAN_MOTION>14.34217707</MEAN_MOTION><ECCENTRICITY>.0001915</ECCENTRICITY><INCLINATION>86.3925</INCLINATION><RA_OF_ASC_NODE>260.6223</RA_OF_ASC_NODE><ARG_OF_PERICENTER>85.9612</ARG_OF_PERICENTER><MEAN_ANOMALY>274.1803</MEAN_ANOMALY></meanElements><tleParameters><EPHEMERIS_TYPE>0</EPHEMERIS_TYPE><CLASSIFICATION_TYPE>U</CLASSIFICATION_TYPE><NORAD_CAT_ID>43574</NORAD_CAT_ID><ELEMENT_SET_NO>999</ELEMENT_SET_NO><REV_AT_EPOCH>34348</REV_AT_EPOCH><BSTAR>-.3763E-5</BSTAR><MEAN_MOTION_DOT>.9E-7</MEAN_MOTION_DOT><MEAN_MOTION_DDOT>0</MEAN_MOTION_DDOT></tleParameters></data></segment></body></omm>
<omm id="CCSDS_OMM_VERS" version="2.0">
<header><CREATION_DATE/><ORIGINATOR/></header><body><segment><metadata><OBJECT_NAME>IRIDIUM 163</OBJECT_NAME><OBJECT_ID>2018-061G</OBJECT_ID><CENTER_NAME>EARTH</CENTER_NAME><REF_FRAME>TEME</REF_FRAME><TIME_SYSTEM>UTC</TIME_SYSTEM><MEAN_ELEMENT_THEORY>SGP4</MEAN_ELEMENT_THEORY></metadata><data><meanElements><EPOCH>2025-02-14T12:44:06.288576</EPOCH><MEAN_MOTION>14.34217283</MEAN_MOTION><ECCENTRICITY>.0002057</ECCENTRICITY><INCLINATION>86.3919</INCLINATION><RA_OF_ASC_NODE>260.4735</RA_OF_ASC_NODE><ARG_OF_PERICENTER>91.7924</ARG_OF_PERICENTER><MEAN_ANOMALY>268.3508</MEAN_ANOMALY></meanElements><tleParameters><EPHEMERIS_TYPE>0</EPHEMERIS_TYPE><CLASSIFICATION_TYPE>U</CLASSIFICATION_TYPE><NORAD_CAT_ID>43575</NORAD_CAT_ID><ELEMENT_SET_NO>999</ELEMENT_SET_NO><REV_AT_EPOCH>34348</REV_AT_EPOCH><BSTAR>.16182E-4</BSTAR><MEAN_MOTION_DOT>.65E-6</MEAN_MOTION_DOT><MEAN_MOTION_DDOT>0</MEAN_MOTION_DDOT></tleParameters></data></segment></body></omm>
<omm id="CCSDS_OMM_VERS" version="2.0">
<header><CREATION_DATE/><ORIGINATOR/></header><body><segment><metadata><OBJECT_NAME>IRIDIUM 156</OBJECT_NAME><OBJECT_ID>2018-061H</OBJECT_ID><CENTER_NAME>EARTH</CENTER_NAME><REF_FRAME>TEME</REF_FRAME><TIME_SYSTEM>UTC</TIME_SYSTEM><MEAN_ELEMENT_THEORY>SGP4</MEAN_ELEMENT_THEORY></metadata><data><meanElements><EPOCH>2025-02-14T02:04:46.508160</EPOCH><MEAN_MOTION>14.34217556</MEAN_MOTION><ECCENTRICITY>.0002477</ECCENTRICITY><INCLINATION>86.3921</INCLINATION><RA_OF_ASC_NODE>260.6662</RA_OF_ASC_NODE><ARG_OF_PERICENTER>86.3786</ARG_OF_PERICENTER><MEAN_ANOMALY>273.7693</MEAN_ANOMALY></meanElements><tleParameters><EPHEMERIS_TYPE>0</EPHEMERIS_TYPE><CLASSIFICATION_TYPE>U</CLASSIFICATION_TYPE><NORAD_CAT_ID>43576</NORAD_CAT_ID><ELEMENT_SET_NO>999</ELEMENT_SET_NO><REV_AT_EPOCH>34340</REV_AT_EPOCH><BSTAR>.1316E-3</BSTAR><MEAN_MOTION_DOT>.388E-5</MEAN_MOTION_DOT><MEAN_MOTION_DDOT>0</MEAN_MOTION_DDOT></tleParameters></data></segment></body></omm>
<omm id="CCSDS_OMM_VERS" version="2.0">
<header><CREATION_DATE/><ORIGINATOR/></header><body><segment><metadata><OBJECT_NAME>IRIDIUM 164</OBJECT_NAME><OBJECT_ID>2018-061J</OBJECT_ID><CENTER_NAME>EARTH</CENTER_NAME><REF_FRAME>TEME</REF_FRAME><TIME_SYSTEM>UTC</TIME_SYSTEM><MEAN_ELEMENT_THEORY>SGP4</MEAN_ELEMENT_THEORY></metadata><data><meanElements><EPOCH>2025-02-14T08:19:14.452320</EPOCH><MEAN_MOTION>14.34216562</MEAN_MOTION><ECCENTRICITY>.0002159</ECCENTRICITY><INCLINATION>86.3921</INCLINATION><RA_OF_ASC_NODE>260.5896</RA_OF_ASC_NODE><ARG_OF_PERICENTER>82.9376</ARG_OF_PERICENTER><MEAN_ANOMALY>277.2065</MEAN_ANOMALY></meanElements><tleParameters><EPHEMERIS_TYPE>0</EPHEMERIS_TYPE><CLASSIFICATION_TYPE>U</CLASSIFICATION_TYPE><NORAD_CAT_ID>43577</NORAD_CAT_ID><ELEMENT_SET_NO>999</ELEMENT_SET_NO><REV_AT_EPOCH>34349</REV_AT_EPOCH><BSTAR>.12947E-3</BSTAR><MEAN_MOTION_DOT>.382E-5</MEAN_MOTION_DOT><MEAN_MOTION_DDOT>0</MEAN_MOTION_DDOT></tleParameters></data></segment></body></omm>

</ndm>
